ORBCOMM FM06            
1 25118U 97084G   26197.46385006  .00000427  00000+0  15401-3 0  9998
2 25118  45.0136 271.7670 0001591 235.8178 139.2905 14.47628571498632
ORBCOMM FM04            
1 25159U 98007C   26197.02998558  .00000339  00000+0  16175-3 0  9994
2 25159 107.9633 228.7844 0041971 275.5031  84.1323 14.35785362480730
ORBCOMM FM19            
1 25415U 98046C   26197.17770035  .00000380  00000+0  16612-3 0  9998
2 25415  44.9935 105.7519 0003216  69.0417  82.7920 14.39542327460952
ORBCOMM FM20            
1 25416U 98046D   26197.46803894  .00000283  00000+0  13904-3 0  9994
2 25416  44.9935 112.6183 0001292   6.5310 353.5555 14.38101338461009
ORBCOMM FM27            
1 25481U 98053G   26197.06510712  .00000301  00000+0  14186-3 0  9998
2 25481  45.0036 198.1872 0002378 294.2041  65.8559 14.39185706454395
ORBCOMM FM32            
1 25982U 99065C   26196.93051742  .00000257  00000+0  13289-3 0  9999
2 25982  45.0159  37.1820 0005749 195.6927 164.3744 14.37168558391221
ORBCOMM FM109           
1 40086U 14040A   26197.34218367  .00000059  00000+0  48786-4 0  9996
2 40086  47.0037 313.6423 0001436 327.9203  32.1595 14.58872505638606
ORBCOMM FM110           
1 41182U 15081D   26197.34694996  .00000139  00000+0  65626-4 0  9997
2 41182  47.0004 223.5633 0003646 227.0254 133.0326 14.58918739561889
ORBCOMM FM118           
1 41183U 15081E   26197.44987444  .00000026  00000+0  41687-4 0  9998
2 41183  47.0024 223.4152 0002952 191.9886 168.0930 14.58904321562002
ORBCOMM FM112           
1 41184U 15081F   26197.24839859  .00000254  00000+0  89968-4 0  9990
2 41184  46.9982 132.8190 0003636 332.6396  27.4298 14.58939394563193
ORBCOMM FM113           
1 41185U 15081G   26197.49998097  .00000106  00000+0  58611-4 0  9995
2 41185  47.0000 132.0209 0002159 326.0777  33.9970 14.58882801563211
ORBCOMM FM108           
1 41187U 15081J   26197.59892133  .00000234  00000+0  85574-4 0  9992
2 41187  47.0055  43.1344 0002541 327.2083  32.8645 14.58911677564372
ORBCOMM FM117           
1 41188U 15081K   26197.63315298  .00000214  00000+0  81512-4 0  9996
2 41188  47.0020  41.5993 0002951 335.0575  25.0168 14.58898736564425
ORBCOMM FM116           
1 41189U 15081L   26197.54479896  .00000102  00000+0  57797-4 0  9996
2 41189  47.0016 131.8062 0001546 231.6290 128.4457 14.58906892563224
